STARLINK-1612
1 26164C 20057AZ  21325.01825696  .00003558  00000-0  23835-3 0  3253
2 26164  53.0512 123.1551 0001525  78.5585 226.7887 15.06396532    19
